[
    {
        "Altitude(m)": 605459.0031963348,
        "Argument of Periapsis(deg)": 0.0,
        "Eccentricity": 0.0,
        "Inclination(deg)": 60.0,
        "Latitude(deg)": 27.98813087536118,
        "Longitude(deg)": -67.2014332719665,
        "Mean Anomaly(deg)": 32.7273,
        "RAAN(deg)": 15.0,
        "Satellite Name": "Test1 68",
        "Satellite Number": 68,
        "Semi-Major Axis(m)": 6980739.136638005,
        "Time(s)": 0
    },
    {
        "Altitude(m)": 605535.7939764869,
        "Argument of Periapsis(deg)": 0.00010418945913296404,
        "Eccentricity": 0.0,
        "Inclination(deg)": 60.0,
        "Latitude(deg)": 28.501260607194006,
        "Longitude(deg)": -66.84448886449573,
        "Mean Anomaly(deg)": 33.347406145461825,
        "RAAN(deg)": 14.999579950860259,
        "Satellite Name": "Test1 68",
        "Satellite Number": 68,
        "Semi-Major Axis(m)": 6980739.136638005,
        "Time(s)": 10
    },
    {
        "Altitude(m)": 605614.2753867101,
        "Argument of Periapsis(deg)": 0.0002083789182659281,
        "Eccentricity": 0.0,
        "Inclination(deg)": 60.0,
        "Latitude(deg)": 29.013172820312903,
        "Longitude(deg)": -66.48367963491883,
        "Mean Anomaly(deg)": 33.967512290923665,
        "RAAN(deg)": 14.999159901720514,
        "Satellite Name": "Test1 68",
        "Satellite Number": 68,
        "Semi-Major Axis(m)": 6980739.136638005,
        "Time(s)": 20
    },
    {
        "Altitude(m)": 605694.3897349628,
        "Argument of Periapsis(deg)": 0.00031256837739889213,
        "Eccentricity": 0.0,
        "Inclination(deg)": 60.0,
        "Latitude(deg)": 29.523830241935844,
        "Longitude(deg)": -66.11889382760262,
        "Mean Anomaly(deg)": 34.58761843638548,
        "RAAN(deg)": 14.99873985258077,
        "Satellite Name": "Test1 68",
        "Satellite Number": 68,
        "Semi-Major Axis(m)": 6980739.136638005,
        "Time(s)": 30
    },
    {
        "Altitude(m)": 605776.0787198413,
        "Argument of Periapsis(deg)": 0.0004167578365318562,
        "Eccentricity": 0.0,
        "Inclination(deg)": 60.0,
        "Latitude(deg)": 30.033194602813673,
        "Longitude(deg)": -65.75001668061712,
        "Mean Anomaly(deg)": 35.20772458184732,
        "RAAN(deg)": 14.998319803441028,
        "Satellite Name": "Test1 68",
        "Satellite Number": 68,
        "Semi-Major Axis(m)": 6980739.136638005,
        "Time(s)": 40
    },
    {
        "Altitude(m)": 605859.2834609218,
        "Argument of Periapsis(deg)": 0.0005209472956648203,
        "Eccentricity": 0.0,
        "Inclination(deg)": 60.0,
        "Latitude(deg)": 30.541226598495104,
        "Longitude(deg)": -65.37693136691874,
        "Mean Anomaly(deg)": 35.82783072730915,
        "RAAN(deg)": 14.997899754301287,
        "Satellite Name": "Test1 68",
        "Satellite Number": 68,
        "Semi-Major Axis(m)": 6980739.136638005,
        "Time(s)": 50
    },
    {
        "Altitude(m)": 605943.9445293571,
        "Argument of Periapsis(deg)": 0.0006251367547977843,
        "Eccentricity": 0.0,
        "Inclination(deg)": 60.0,
        "Latitude(deg)": 31.047885849234945,
        "Longitude(deg)": -64.99951842248728,
        "Mean Anomaly(deg)": 36.447936872770974,
        "RAAN(deg)": 14.997479705161544,
        "Satellite Name": "Test1 68",
        "Satellite Number": 68,
        "Semi-Major Axis(m)": 6980739.136638005,
        "Time(s)": 60
    },
    {
        "Altitude(m)": 606030.0019786692,
        "Argument of Periapsis(deg)": 0.0007293262139307483,
        "Eccentricity": 0.0,
        "Inclination(deg)": 60.0,
        "Latitude(deg)": 31.55313085850362,
        "Longitude(deg)": -64.6176551744516,
        "Mean Anomaly(deg)": 37.068043018232814,
        "RAAN(deg)": 14.997059656021802,
        "Satellite Name": "Test1 68",
        "Satellite Number": 68,
        "Semi-Major Axis(m)": 6980739.136638005,
        "Time(s)": 70
    },
    {
        "Altitude(m)": 606117.3953757624,
        "Argument of Periapsis(deg)": 0.0008335156730637124,
        "Eccentricity": 0.0,
        "Inclination(deg)": 60.0,
        "Latitude(deg)": 32.05691897005735,
        "Longitude(deg)": -64.23121668225957,
        "Mean Anomaly(deg)": 37.68814916369463,
        "RAAN(deg)": 14.996639606882056,
        "Satellite Name": "Test1 68",
        "Satellite Number": 68,
        "Semi-Major Axis(m)": 6980739.136638005,
        "Time(s)": 80
    },
    {
        "Altitude(m)": 606206.0638321036,
        "Argument of Periapsis(deg)": 0.0009377051321966765,
        "Eccentricity": 0.0,
        "Inclination(deg)": 60.0,
        "Latitude(deg)": 32.5592063235312,
        "Longitude(deg)": -63.840075166357956,
        "Mean Anomaly(deg)": 38.30825530915647,
        "RAAN(deg)": 14.996219557742315,
        "Satellite Name": "Test1 68",
        "Satellite Number": 68,
        "Semi-Major Axis(m)": 6980739.136638005,
        "Time(s)": 90
    },
    {
        "Altitude(m)": 606295.9460350919,
        "Argument of Periapsis(deg)": 0.0010418945913296407,
        "Eccentricity": 0.0,
        "Inclination(deg)": 60.0,
        "Latitude(deg)": 33.05994780851524,
        "Longitude(deg)": -63.44409943748647,
        "Mean Anomaly(deg)": 38.9283614546183,
        "RAAN(deg)": 14.995799508602571,
        "Satellite Name": "Test1 68",
        "Satellite Number": 68,
        "Semi-Major Axis(m)": 6980739.136638005,
        "Time(s)": 100
    },
    {
        "Altitude(m)": 606386.9802795651,
        "Argument of Periapsis(deg)": 0.0011460840504626045,
        "Eccentricity": 0.0,
        "Inclination(deg)": 60.0,
        "Latitude(deg)": 33.55909701707638,
        "Longitude(deg)": -63.04315583972053,
        "Mean Anomaly(deg)": 39.54846760008012,
        "RAAN(deg)": 14.99537945946283,
        "Satellite Name": "Test1 68",
        "Satellite Number": 68,
        "Semi-Major Axis(m)": 6980739.136638005,
        "Time(s)": 110
    },
    {
        "Altitude(m)": 606479.1044994754,
        "Argument of Periapsis(deg)": 0.0012502735095955685,
        "Eccentricity": 0.0,
        "Inclination(deg)": 60.0,
        "Latitude(deg)": 34.05660619469143,
        "Longitude(deg)": -62.63710768181064,
        "Mean Anomaly(deg)": 40.168573745541956,
        "RAAN(deg)": 14.994959410323089,
        "Satellite Name": "Test1 68",
        "Satellite Number": 68,
        "Semi-Major Axis(m)": 6980739.136638005,
        "Time(s)": 120
    },
    {
        "Altitude(m)": 606572.2562996438,
        "Argument of Periapsis(deg)": 0.0013544629687285324,
        "Eccentricity": 0.0,
        "Inclination(deg)": 60.0,
        "Latitude(deg)": 34.5524261895572,
        "Longitude(deg)": -62.22581467001668,
        "Mean Anomaly(deg)": 40.78867989100379,
        "RAAN(deg)": 14.994539361183342,
        "Satellite Name": "Test1 68",
        "Satellite Number": 68,
        "Semi-Major Axis(m)": 6980739.136638005,
        "Time(s)": 130
    },
    {
        "Altitude(m)": 606666.3729876613,
        "Argument of Periapsis(deg)": 0.0014586524278614966,
        "Eccentricity": 0.0,
        "Inclination(deg)": 60.0,
        "Latitude(deg)": 35.046506400245676,
        "Longitude(deg)": -61.80913385566974,
        "Mean Anomaly(deg)": 41.40878603646562,
        "RAAN(deg)": 14.994119312043603,
        "Satellite Name": "Test1 68",
        "Satellite Number": 68,
        "Semi-Major Axis(m)": 6980739.136638005,
        "Time(s)": 140
    },
    {
        "Altitude(m)": 606761.391605851,
        "Argument of Periapsis(deg)": 0.0015628418869944607,
        "Eccentricity": 0.0,
        "Inclination(deg)": 60.0,
        "Latitude(deg)": 35.538794721677874,
        "Longitude(deg)": -61.386919072120264,
        "Mean Anomaly(deg)": 42.02889218192745,
        "RAAN(deg)": 14.993699262903858,
        "Satellite Name": "Test1 68",
        "Satellite Number": 68,
        "Semi-Major Axis(m)": 6980739.136638005,
        "Time(s)": 150
    },
    {
        "Altitude(m)": 606857.2489633431,
        "Argument of Periapsis(deg)": 0.0016670313461274247,
        "Eccentricity": 0.0,
        "Inclination(deg)": 60.0,
        "Latitude(deg)": 36.02923748939152,
        "Longitude(deg)": -60.95902037438764,
        "Mean Anomaly(deg)": 42.648998327389286,
        "RAAN(deg)": 14.993279213764117,
        "Satellite Name": "Test1 68",
        "Satellite Number": 68,
        "Semi-Major Axis(m)": 6980739.136638005,
        "Time(s)": 160
    },
    {
        "Altitude(m)": 606953.8816681626,
        "Argument of Periapsis(deg)": 0.0017712208052603888,
        "Eccentricity": 0.0,
        "Inclination(deg)": 60.0,
        "Latitude(deg)": 36.51777942208048,
        "Longitude(deg)": -60.52528499487326,
        "Mean Anomaly(deg)": 43.26910447285112,
        "RAAN(deg)": 14.992859164624372,
        "Satellite Name": "Test1 68",
        "Satellite Number": 68,
        "Semi-Major Axis(m)": 6980739.136638005,
        "Time(s)": 170
    },
    {
        "Altitude(m)": 607051.2261594016,
        "Argument of Periapsis(deg)": 0.001875410264393353,
        "Eccentricity": 0.0,
        "Inclination(deg)": 60.0,
        "Latitude(deg)": 37.00436356239383,
        "Longitude(deg)": -60.08555678993407,
        "Mean Anomaly(deg)": 43.88921061831296,
        "RAAN(deg)": 14.99243911548463,
        "Satellite Name": "Test1 68",
        "Satellite Number": 68,
        "Semi-Major Axis(m)": 6980739.136638005,
        "Time(s)": 180
    },
    {
        "Altitude(m)": 607149.2187393905,
        "Argument of Periapsis(deg)": 0.0019795997235263173,
        "Eccentricity": 0.0,
        "Inclination(deg)": 60.0,
        "Latitude(deg)": 37.488931215983115,
        "Longitude(deg)": -59.63967569078239,
        "Mean Anomaly(deg)": 44.509316763774784,
        "RAAN(deg)": 14.992019066344888,
        "Satellite Name": "Test1 68",
        "Satellite Number": 68,
        "Semi-Major Axis(m)": 6980739.136638005,
        "Time(s)": 190
    }
]